{
    "type":  "FeatureCollection",
    "name":  "Badge 1775",
    "crs":  {
                "type":  "name",
                "properties":  {
                                   "name":  "urn:ogc:def:crs:OGC:1.3:CRS84"
                               }
            },
    "features":  [
                     {
                         "type":  "Feature",
                         "properties":  {
                                            "Name":  "#1775",
                                            "description":  "\u003cdiv dir=\u0027rtl\u0027 style=\u0027font-family:Arial;\u0027\u003e\u003cb\u003eשם:\u003c/b\u003e דלית אפריים שכבד\u003cbr/\u003e\u003cb\u003eאתר:\u003c/b\u003e מעלה פלמח\u003cbr/\u003e\u003cb\u003eתאריך:\u003c/b\u003e 22-03-2025\u003cbr/\u003e\u003cb\u003eID:\u003c/b\u003e 613\u003cbr/\u003e\u003cb\u003eFB:\u003c/b\u003e \u003ca href=\u0027https://www.facebook.com/groups/3235176716775457/permalink/3591701531122972/\u0027\u003ehttps://www.facebook.com/groups/3235176716775457/permalink/3591701531122972/\u003c/a\u003e\u003cbr/\u003e\u003cbr/\u003e\u003cimg src=\u0027https://drive.google.com/uc?export=view\u0026amp;id=1jLbaTo4R4VM4U8AqknrX_kEmIxZekC9x\u0027 width=\u0027450\u0027/\u003e\u003cbr/\u003e\u003c/div\u003e",
                                            "tessellate":  -1,
                                            "extrude":  0,
                                            "visibility":  -1
                                        },
                         "geometry":  {
                                          "type":  "Point",
                                          "coordinates":  [
                                                              35.0613889,
                                                              30.9311111,
                                                              0.0
                                                          ]
                                      }
                     },
                     {
                         "type":  "Feature",
                         "properties":  {
                                            "Name":  "#1775",
                                            "description":  "\u003cdiv dir=\u0027rtl\u0027 style=\u0027font-family:Arial;\u0027\u003e\u003cb\u003eשם:\u003c/b\u003e דלית אפריים שכבד\u003cbr/\u003e\u003cb\u003eאתר:\u003c/b\u003e בנימינה\u003cbr/\u003e\u003cb\u003eתאריך:\u003c/b\u003e 05-04-2025\u003cbr/\u003e\u003cb\u003eID:\u003c/b\u003e 484\u003cbr/\u003e\u003cb\u003eFB:\u003c/b\u003e \u003ca href=\u0027https://www.facebook.com/groups/3235176716775457/posts/3605645343061924/\u0027\u003ehttps://www.facebook.com/groups/3235176716775457/posts/3605645343061924/\u003c/a\u003e\u003cbr/\u003e\u003cbr/\u003e\u003cimg src=\u0027https://drive.google.com/uc?export=view\u0026amp;id=1Xx1PEOyni5SaBUNulkwi4qeZ5yMj6567\u0027 width=\u0027450\u0027/\u003e\u003cbr/\u003e\u003c/div\u003e",
                                            "tessellate":  -1,
                                            "extrude":  0,
                                            "visibility":  -1
                                        },
                         "geometry":  {
                                          "type":  "Point",
                                          "coordinates":  [
                                                              34.95509,
                                                              32.51707,
                                                              0.0
                                                          ]
                                      }
                     },
                     {
                         "type":  "Feature",
                         "properties":  {
                                            "Name":  "#1775",
                                            "description":  "\u003cdiv dir=\u0027rtl\u0027 style=\u0027font-family:Arial;\u0027\u003e\u003cb\u003eשם:\u003c/b\u003e דלית אפריים שכבד\u003cbr/\u003e\u003cb\u003eאתר:\u003c/b\u003e זכרון יעקב\u003cbr/\u003e\u003cb\u003eתאריך:\u003c/b\u003e 05-04-2025\u003cbr/\u003e\u003cb\u003eID:\u003c/b\u003e 485\u003cbr/\u003e\u003cb\u003eFB:\u003c/b\u003e \u003ca href=\u0027https://www.facebook.com/groups/3235176716775457/posts/3605645343061924/\u0027\u003ehttps://www.facebook.com/groups/3235176716775457/posts/3605645343061924/\u003c/a\u003e\u003cbr/\u003e\u003cbr/\u003e\u003cimg src=\u0027https://drive.google.com/uc?export=view\u0026amp;id=1Y-3SN-T2a6ozwpvD9bwSASdeEP_VZoHQ\u0027 width=\u0027450\u0027/\u003e\u003cbr/\u003e\u003c/div\u003e",
                                            "tessellate":  -1,
                                            "extrude":  0,
                                            "visibility":  -1
                                        },
                         "geometry":  {
                                          "type":  "Point",
                                          "coordinates":  [
                                                              34.95209,
                                                              32.57395,
                                                              0.0
                                                          ]
                                      }
                     },
                     {
                         "type":  "Feature",
                         "properties":  {
                                            "Name":  "#1775",
                                            "description":  "\u003cdiv dir=\u0027rtl\u0027 style=\u0027font-family:Arial;\u0027\u003e\u003cb\u003eשם:\u003c/b\u003e דלית אפריים שכבד\u003cbr/\u003e\u003cb\u003eאתר:\u003c/b\u003e מעגן מיכאל\u003cbr/\u003e\u003cb\u003eתאריך:\u003c/b\u003e 05-04-2025\u003cbr/\u003e\u003cb\u003eID:\u003c/b\u003e 486\u003cbr/\u003e\u003cb\u003eFB:\u003c/b\u003e \u003ca href=\u0027https://www.facebook.com/groups/3235176716775457/posts/3605645343061924/\u0027\u003ehttps://www.facebook.com/groups/3235176716775457/posts/3605645343061924/\u003c/a\u003e\u003cbr/\u003e\u003cbr/\u003e\u003cimg src=\u0027https://drive.google.com/uc?export=view\u0026amp;id=1Y6jwE_NLWuQizF6mvRr7KunYKVihEGKA\u0027 width=\u0027450\u0027/\u003e\u003cbr/\u003e\u003c/div\u003e",
                                            "tessellate":  -1,
                                            "extrude":  0,
                                            "visibility":  -1
                                        },
                         "geometry":  {
                                          "type":  "Point",
                                          "coordinates":  [
                                                              34.91781,
                                                              32.55871,
                                                              0.0
                                                          ]
                                      }
                     },
                     {
                         "type":  "Feature",
                         "properties":  {
                                            "Name":  "#1775",
                                            "description":  "\u003cdiv dir=\u0027rtl\u0027 style=\u0027font-family:Arial;\u0027\u003e\u003cb\u003eשם:\u003c/b\u003e דלית אפריים שכבד\u003cbr/\u003e\u003cb\u003eאתר:\u003c/b\u003e לכיש\u003cbr/\u003e\u003cb\u003eתאריך:\u003c/b\u003e 05-04-2025\u003cbr/\u003e\u003cb\u003eID:\u003c/b\u003e 491\u003cbr/\u003e\u003cb\u003eFB:\u003c/b\u003e \u003ca href=\u0027https://www.facebook.com/groups/3235176716775457/posts/3605598119733313/\u0027\u003ehttps://www.facebook.com/groups/3235176716775457/posts/3605598119733313/\u003c/a\u003e\u003cbr/\u003e\u003cbr/\u003e\u003cimg src=\u0027https://drive.google.com/uc?export=view\u0026amp;id=1YW0wrZ-d6SK133SNBJDLCt1WmwQ_49KY\u0027 width=\u0027450\u0027/\u003e\u003cbr/\u003e\u003c/div\u003e",
                                            "tessellate":  -1,
                                            "extrude":  0,
                                            "visibility":  -1
                                        },
                         "geometry":  {
                                          "type":  "Point",
                                          "coordinates":  [
                                                              34.8514147,
                                                              31.5599559,
                                                              0.0
                                                          ]
                                      }
                     },
                     {
                         "type":  "Feature",
                         "properties":  {
                                            "Name":  "#1775",
                                            "description":  "\u003cdiv dir=\u0027rtl\u0027 style=\u0027font-family:Arial;\u0027\u003e\u003cb\u003eשם:\u003c/b\u003e דלית אפריים שכבד\u003cbr/\u003e\u003cb\u003eאתר:\u003c/b\u003e לכיש\u003cbr/\u003e\u003cb\u003eתאריך:\u003c/b\u003e 05-04-2025\u003cbr/\u003e\u003cb\u003eID:\u003c/b\u003e 492\u003cbr/\u003e\u003cb\u003eFB:\u003c/b\u003e \u003ca href=\u0027https://www.facebook.com/groups/3235176716775457/posts/3605598119733313\u0027\u003ehttps://www.facebook.com/groups/3235176716775457/posts/3605598119733313\u003c/a\u003e\u003cbr/\u003e\u003cbr/\u003e\u003cimg src=\u0027https://drive.google.com/uc?export=view\u0026amp;id=1Y_T4PNnG0iySdiGATEpWkFrj5g0VULsz\u0027 width=\u0027450\u0027/\u003e\u003cbr/\u003e\u003c/div\u003e",
                                            "tessellate":  -1,
                                            "extrude":  0,
                                            "visibility":  -1
                                        },
                         "geometry":  {
                                          "type":  "Point",
                                          "coordinates":  [
                                                              34.8514147,
                                                              31.5599559,
                                                              0.0
                                                          ]
                                      }
                     },
                     {
                         "type":  "Feature",
                         "properties":  {
                                            "Name":  "#1775",
                                            "description":  "\u003cdiv dir=\u0027rtl\u0027 style=\u0027font-family:Arial;\u0027\u003e\u003cb\u003eשם:\u003c/b\u003e דלית אפריים שכבד\u003cbr/\u003e\u003cb\u003eאתר:\u003c/b\u003e אולימפוס\u003cbr/\u003e\u003cb\u003eתאריך:\u003c/b\u003e 13-04-2025\u003cbr/\u003e\u003cb\u003eID:\u003c/b\u003e 375\u003cbr/\u003e\u003cb\u003eFB:\u003c/b\u003e \u003ca href=\u0027https://www.facebook.com/groups/3235176716775457/posts/3613391992287259/\u0027\u003ehttps://www.facebook.com/groups/3235176716775457/posts/3613391992287259/\u003c/a\u003e\u003cbr/\u003e\u003cbr/\u003e\u003cimg src=\u0027https://drive.google.com/uc?export=view\u0026amp;id=1RTng6hXnrgFRrhMFp2VMcOoLeUCxPrLn\u0027 width=\u0027450\u0027/\u003e\u003cbr/\u003e\u003c/div\u003e",
                                            "tessellate":  -1,
                                            "extrude":  0,
                                            "visibility":  -1
                                        },
                         "geometry":  {
                                          "type":  "Point",
                                          "coordinates":  [
                                                              22.3447563,
                                                              40.0882151,
                                                              0.0
                                                          ]
                                      }
                     },
                     {
                         "type":  "Feature",
                         "properties":  {
                                            "Name":  "#1775",
                                            "description":  "\u003cdiv dir=\u0027rtl\u0027 style=\u0027font-family:Arial;\u0027\u003e\u003cb\u003eשם:\u003c/b\u003e דלית אפריים שכבד\u003cbr/\u003e\u003cb\u003eאתר:\u003c/b\u003e קניון ויקו\u003cbr/\u003e\u003cb\u003eתאריך:\u003c/b\u003e 15-04-2025\u003cbr/\u003e\u003cb\u003eID:\u003c/b\u003e 347\u003cbr/\u003e\u003cb\u003eFB:\u003c/b\u003e \u003ca href=\u0027https://www.facebook.com/groups/3235176716775457/posts/3615466235413168/\u0027\u003ehttps://www.facebook.com/groups/3235176716775457/posts/3615466235413168/\u003c/a\u003e\u003cbr/\u003e\u003cbr/\u003e\u003cimg src=\u0027https://drive.google.com/uc?export=view\u0026amp;id=1QPOAHtPn8tl0xN2erLDuaYrfRHgaRCx2\u0027 width=\u0027450\u0027/\u003e\u003cbr/\u003e\u003c/div\u003e",
                                            "tessellate":  -1,
                                            "extrude":  0,
                                            "visibility":  -1
                                        },
                         "geometry":  {
                                          "type":  "Point",
                                          "coordinates":  [
                                                              20.7075585,
                                                              39.952127,
                                                              0.0
                                                          ]
                                      }
                     },
                     {
                         "type":  "Feature",
                         "properties":  {
                                            "Name":  "#1775",
                                            "description":  "\u003cdiv dir=\u0027rtl\u0027 style=\u0027font-family:Arial;\u0027\u003e\u003cb\u003eשם:\u003c/b\u003e דלית אפריים שכבד\u003cbr/\u003e\u003cb\u003eאתר:\u003c/b\u003e עין הוד\u003cbr/\u003e\u003cb\u003eתאריך:\u003c/b\u003e 25-04-2025\u003cbr/\u003e\u003cb\u003eID:\u003c/b\u003e 177\u003cbr/\u003e\u003cb\u003eFB:\u003c/b\u003e \u003ca href=\u0027https://www.facebook.com/groups/3235176716775457/posts/3625023844457407/\u0027\u003ehttps://www.facebook.com/groups/3235176716775457/posts/3625023844457407/\u003c/a\u003e\u003cbr/\u003e\u003cbr/\u003e\u003cimg src=\u0027https://drive.google.com/uc?export=view\u0026amp;id=1EBW06B-XrV1KD1Gy4mk4njCRJzieyVKS\u0027 width=\u0027450\u0027/\u003e\u003cbr/\u003e\u003c/div\u003e",
                                            "tessellate":  -1,
                                            "extrude":  0,
                                            "visibility":  -1
                                        },
                         "geometry":  {
                                          "type":  "Point",
                                          "coordinates":  [
                                                              34.9925576,
                                                              32.7040263,
                                                              0.0
                                                          ]
                                      }
                     },
                     {
                         "type":  "Feature",
                         "properties":  {
                                            "Name":  "#1775",
                                            "description":  "\u003cdiv dir=\u0027rtl\u0027 style=\u0027font-family:Arial;\u0027\u003e\u003cb\u003eשם:\u003c/b\u003e דלית אפריים שכבד\u003cbr/\u003e\u003cb\u003eאתר:\u003c/b\u003e אולימפוס\u003cbr/\u003e\u003cb\u003eתאריך:\u003c/b\u003e 13-05-2025\u003cbr/\u003e\u003cb\u003eID:\u003c/b\u003e 367\u003cbr/\u003e\u003cb\u003eFB:\u003c/b\u003e \u003ca href=\u0027https://www.facebook.com/groups/3235176716775457/posts/3614102608882864/\u0027\u003ehttps://www.facebook.com/groups/3235176716775457/posts/3614102608882864/\u003c/a\u003e\u003cbr/\u003e\u003cbr/\u003e\u003cimg src=\u0027https://drive.google.com/uc?export=view\u0026amp;id=1RDsDtCk3uxT7U0Ib9O401e4Zdj5d53vN\u0027 width=\u0027450\u0027/\u003e\u003cbr/\u003e\u003c/div\u003e",
                                            "tessellate":  -1,
                                            "extrude":  0,
                                            "visibility":  -1
                                        },
                         "geometry":  {
                                          "type":  "Point",
                                          "coordinates":  [
                                                              22.3505928,
                                                              40.0838812,
                                                              0.0
                                                          ]
                                      }
                     },
                     {
                         "type":  "Feature",
                         "properties":  {
                                            "Name":  "#1775",
                                            "description":  "\u003cdiv dir=\u0027rtl\u0027 style=\u0027font-family:Arial;\u0027\u003e\u003cb\u003eשם:\u003c/b\u003e דלית אפריים שכבד\u003cbr/\u003e\u003cb\u003eאתר:\u003c/b\u003e נחל כזיב\u003cbr/\u003e\u003cb\u003eתאריך:\u003c/b\u003e 18-05-2025\u003cbr/\u003e\u003cb\u003eID:\u003c/b\u003e 614\u003cbr/\u003e\u003cb\u003eFB:\u003c/b\u003e \u003ca href=\u0027https://www.facebook.com/groups/3235176716775457/posts/3645168505776274/\u0027\u003ehttps://www.facebook.com/groups/3235176716775457/posts/3645168505776274/\u003c/a\u003e\u003cbr/\u003e\u003cbr/\u003e\u003cimg src=\u0027https://drive.google.com/uc?export=view\u0026amp;id=1jPfbfJUj_HOjwRzyQuD65MJ3PHqS22iG\u0027 width=\u0027450\u0027/\u003e\u003cbr/\u003e\u003c/div\u003e",
                                            "tessellate":  -1,
                                            "extrude":  0,
                                            "visibility":  -1
                                        },
                         "geometry":  {
                                          "type":  "Point",
                                          "coordinates":  [
                                                              35.28044,
                                                              33.02796,
                                                              0.0
                                                          ]
                                      }
                     },
                     {
                         "type":  "Feature",
                         "properties":  {
                                            "Name":  "#1775",
                                            "description":  "\u003cdiv dir=\u0027rtl\u0027 style=\u0027font-family:Arial;\u0027\u003e\u003cb\u003eשם:\u003c/b\u003e דלית אפריים שכבד\u003cbr/\u003e\u003cb\u003eאתר:\u003c/b\u003e בריכת המשושים\u003cbr/\u003e\u003cb\u003eתאריך:\u003c/b\u003e 01-06-2025\u003cbr/\u003e\u003cb\u003eID:\u003c/b\u003e 869\u003cbr/\u003e\u003cb\u003eFB:\u003c/b\u003e \u003ca href=\u0027https://www.facebook.com/groups/3235176716775457/posts/3656692564623868/\u0027\u003ehttps://www.facebook.com/groups/3235176716775457/posts/3656692564623868/\u003c/a\u003e\u003cbr/\u003e\u003cbr/\u003e\u003cimg src=\u0027https://drive.google.com/uc?export=view\u0026amp;id=1YrZwo7X5E6J9Mr7SeamG67IxDXi3H7yw\u0027 width=\u0027450\u0027/\u003e\u003cbr/\u003e\u003c/div\u003e",
                                            "tessellate":  -1,
                                            "extrude":  0,
                                            "visibility":  -1
                                        },
                         "geometry":  {
                                          "type":  "Point",
                                          "coordinates":  [
                                                              35.6617502,
                                                              32.9399743,
                                                              0.0
                                                          ]
                                      }
                     },
                     {
                         "type":  "Feature",
                         "properties":  {
                                            "Name":  "#1775",
                                            "description":  "\u003cdiv dir=\u0027rtl\u0027 style=\u0027font-family:Arial;\u0027\u003e\u003cb\u003eשם:\u003c/b\u003e דלית אפריים שכבד\u003cbr/\u003e\u003cb\u003eאתר:\u003c/b\u003e קירית אתא\u003cbr/\u003e\u003cb\u003eתאריך:\u003c/b\u003e 19-07-2025\u003cbr/\u003e\u003cb\u003eID:\u003c/b\u003e 1245\u003cbr/\u003e\u003cb\u003eFB:\u003c/b\u003e \u003ca href=\u0027https://www.facebook.com/groups/beshvil.yael/posts/3698326763793781/\u0027\u003ehttps://www.facebook.com/groups/beshvil.yael/posts/3698326763793781/\u003c/a\u003e\u003cbr/\u003e\u003cbr/\u003e\u003cimg src=\u0027https://drive.google.com/uc?export=view\u0026amp;id=1o2RwhUwPWwG53xt9savOQqAFMs-U7LgI\u0027 width=\u0027450\u0027/\u003e\u003cbr/\u003e\u003c/div\u003e",
                                            "tessellate":  -1,
                                            "extrude":  0,
                                            "visibility":  -1
                                        },
                         "geometry":  {
                                          "type":  "Point",
                                          "coordinates":  [
                                                              35.1214898,
                                                              32.8009201,
                                                              0.0
                                                          ]
                                      }
                     },
                     {
                         "type":  "Feature",
                         "properties":  {
                                            "Name":  "#1775",
                                            "description":  "\u003cdiv dir=\u0027rtl\u0027 style=\u0027font-family:Arial;\u0027\u003e\u003cb\u003eשם:\u003c/b\u003e דלית אפריים שכבד\u003cbr/\u003e\u003cb\u003eאתר:\u003c/b\u003e \u003cbr/\u003e\u003cb\u003eתאריך:\u003c/b\u003e 22-09-2025\u003cbr/\u003e\u003cb\u003eID:\u003c/b\u003e 1988\u003cbr/\u003e\u003cb\u003eFB:\u003c/b\u003e \u003ca href=\u0027https://www.facebook.com/groups/beshvil.yael/posts/3757121221247668\u0027\u003ehttps://www.facebook.com/groups/beshvil.yael/posts/3757121221247668\u003c/a\u003e\u003cbr/\u003e\u003cbr/\u003e\u003cimg src=\u0027https://drive.google.com/uc?export=view\u0026amp;id=1iqSCcVjvuevfZav8UFNdJsto3qf9jFi7\u0027 width=\u0027450\u0027/\u003e\u003cbr/\u003e\u003c/div\u003e",
                                            "tessellate":  -1,
                                            "extrude":  0,
                                            "visibility":  -1
                                        },
                         "geometry":  {
                                          "type":  "Point",
                                          "coordinates":  [
                                                              74.51349,
                                                              41.04749,
                                                              0.0
                                                          ]
                                      }
                     },
                     {
                         "type":  "Feature",
                         "properties":  {
                                            "Name":  "#1775",
                                            "description":  "\u003cdiv dir=\u0027rtl\u0027 style=\u0027font-family:Arial;\u0027\u003e\u003cb\u003eשם:\u003c/b\u003e דלית אפריים שכבד\u003cbr/\u003e\u003cb\u003eאתר:\u003c/b\u003e Ala archa\u003cbr/\u003e\u003cb\u003eתאריך:\u003c/b\u003e 24-09-2025\u003cbr/\u003e\u003cb\u003eID:\u003c/b\u003e 2035\u003cbr/\u003e\u003cb\u003eFB:\u003c/b\u003e \u003ca href=\u0027https://www.facebook.com/groups/beshvil.yael/posts/3759671604325963/\u0027\u003ehttps://www.facebook.com/groups/beshvil.yael/posts/3759671604325963/\u003c/a\u003e\u003cbr/\u003e\u003cbr/\u003e\u003cimg src=\u0027https://drive.google.com/uc?export=view\u0026amp;id=11ym8tOle-N1q14Fbv2emm2-SOQpQUBJO\u0027 width=\u0027450\u0027/\u003e\u003cbr/\u003e\u003c/div\u003e",
                                            "tessellate":  -1,
                                            "extrude":  0,
                                            "visibility":  -1
                                        },
                         "geometry":  {
                                          "type":  "Point",
                                          "coordinates":  [
                                                              74.47984,
                                                              42.64509,
                                                              0.0
                                                          ]
                                      }
                     },
                     {
                         "type":  "Feature",
                         "properties":  {
                                            "Name":  "#1775",
                                            "description":  "\u003cdiv dir=\u0027rtl\u0027 style=\u0027font-family:Arial;\u0027\u003e\u003cb\u003eשם:\u003c/b\u003e דלית אפריים שכבד\u003cbr/\u003e\u003cb\u003eאתר:\u003c/b\u003e מצפור הדר גולדין\u003cbr/\u003e\u003cb\u003eתאריך:\u003c/b\u003e 11-10-2025\u003cbr/\u003e\u003cb\u003eID:\u003c/b\u003e 2330\u003cbr/\u003e\u003cb\u003eFB:\u003c/b\u003e \u003ca href=\u0027https://www.facebook.com/groups/beshvil.yael/posts/3776566435969813/\u0027\u003ehttps://www.facebook.com/groups/beshvil.yael/posts/3776566435969813/\u003c/a\u003e\u003cbr/\u003e\u003cbr/\u003e\u003cimg src=\u0027https://drive.google.com/uc?export=view\u0026amp;id=1abQ-CdBYheZV8p653U3jTPU87rt7HA6E\u0027 width=\u0027450\u0027/\u003e\u003cbr/\u003e\u003c/div\u003e",
                                            "tessellate":  -1,
                                            "extrude":  0,
                                            "visibility":  -1
                                        },
                         "geometry":  {
                                          "type":  "Point",
                                          "coordinates":  [
                                                              35.03151,
                                                              32.24621,
                                                              0.0
                                                          ]
                                      }
                     },
                     {
                         "type":  "Feature",
                         "properties":  {
                                            "Name":  "#1775",
                                            "description":  "\u003cdiv dir=\u0027rtl\u0027 style=\u0027font-family:Arial;\u0027\u003e\u003cb\u003eשם:\u003c/b\u003e דלית אפריים שכבד\u003cbr/\u003e\u003cb\u003eאתר:\u003c/b\u003e טיילת יפה נוף\u003cbr/\u003e\u003cb\u003eתאריך:\u003c/b\u003e 23-11-2025\u003cbr/\u003e\u003cb\u003eID:\u003c/b\u003e 2845\u003cbr/\u003e\u003cb\u003eFB:\u003c/b\u003e \u003ca href=\u0027https://www.facebook.com/groups/beshvil.yael/posts/3817223015237488/\u0027\u003ehttps://www.facebook.com/groups/beshvil.yael/posts/3817223015237488/\u003c/a\u003e\u003cbr/\u003e\u003cbr/\u003e\u003cimg src=\u0027https://drive.google.com/uc?export=view\u0026amp;id=1XPUZbHoIwaWrnlHQT_s6EMo6OxQAtqyp\u0027 width=\u0027450\u0027/\u003e\u003cbr/\u003e\u003c/div\u003e",
                                            "tessellate":  -1,
                                            "extrude":  0,
                                            "visibility":  -1
                                        },
                         "geometry":  {
                                          "type":  "Point",
                                          "coordinates":  [
                                                              34.98276,
                                                              32.81277,
                                                              0.0
                                                          ]
                                      }
                     },
                     {
                         "type":  "Feature",
                         "properties":  {
                                            "Name":  "#1775",
                                            "description":  "\u003cdiv dir=\u0027rtl\u0027 style=\u0027font-family:Arial;\u0027\u003e\u003cb\u003eשם:\u003c/b\u003e דלית אפריים שכבד\u003cbr/\u003e\u003cb\u003eאתר:\u003c/b\u003e מנזר סנט ג\u0026quot;ורג\u0027\u003cbr/\u003e\u003cb\u003eתאריך:\u003c/b\u003e 06-12-2025\u003cbr/\u003e\u003cb\u003eID:\u003c/b\u003e 2973\u003cbr/\u003e\u003cb\u003eFB:\u003c/b\u003e \u003ca href=\u0027https://www.facebook.com/groups/beshvil.yael/posts/3828142900812166\u0027\u003ehttps://www.facebook.com/groups/beshvil.yael/posts/3828142900812166\u003c/a\u003e\u003cbr/\u003e\u003cbr/\u003e\u003cimg src=\u0027https://drive.google.com/uc?export=view\u0026amp;id=1gzdJWGBDiWe7PWm67d5aaHDLPEU1eglt\u0027 width=\u0027450\u0027/\u003e\u003cbr/\u003e\u003c/div\u003e",
                                            "tessellate":  -1,
                                            "extrude":  0,
                                            "visibility":  -1
                                        },
                         "geometry":  {
                                          "type":  "Point",
                                          "coordinates":  [
                                                              35.39413,
                                                              31.85752,
                                                              0.0
                                                          ]
                                      }
                     },
                     {
                         "type":  "Feature",
                         "properties":  {
                                            "Name":  "#1775",
                                            "description":  "\u003cdiv dir=\u0027rtl\u0027 style=\u0027font-family:Arial;\u0027\u003e\u003cb\u003eשם:\u003c/b\u003e דלית אפריים שכבד\u003cbr/\u003e\u003cb\u003eאתר:\u003c/b\u003e לפלנד\u003cbr/\u003e\u003cb\u003eתאריך:\u003c/b\u003e 22-02-2026\u003cbr/\u003e\u003cb\u003eID:\u003c/b\u003e 3820\u003cbr/\u003e\u003cb\u003eFB:\u003c/b\u003e \u003ca href=\u0027https://www.facebook.com/groups/beshvil.yael/posts/3897534463873009\u0027\u003ehttps://www.facebook.com/groups/beshvil.yael/posts/3897534463873009\u003c/a\u003e\u003cbr/\u003e\u003cbr/\u003e\u003cimg src=\u0027https://drive.google.com/uc?export=view\u0026amp;id=1xNlUpTwbIMZvi-1QWrmFJpWq4-fy2R4v\u0027 width=\u0027450\u0027/\u003e\u003cbr/\u003e\u003c/div\u003e",
                                            "tessellate":  -1,
                                            "extrude":  0,
                                            "visibility":  -1
                                        },
                         "geometry":  {
                                          "type":  "Point",
                                          "coordinates":  [
                                                              26.50464,
                                                              67.92223,
                                                              0.0
                                                          ]
                                      }
                     },
                     {
                         "type":  "Feature",
                         "properties":  {
                                            "Name":  "#1775",
                                            "description":  "\u003cdiv dir=\u0027rtl\u0027 style=\u0027font-family:Arial;\u0027\u003e\u003cb\u003eשם:\u003c/b\u003e דלית אפריים שכבד\u003cbr/\u003e\u003cb\u003eאתר:\u003c/b\u003e צעדת התצפיתניות\u003cbr/\u003e\u003cb\u003eתאריך:\u003c/b\u003e 27-02-2026\u003cbr/\u003e\u003cb\u003eID:\u003c/b\u003e 3882\u003cbr/\u003e\u003cb\u003eFB:\u003c/b\u003e \u003ca href=\u0027https://www.facebook.com/groups/beshvil.yael/posts/3902667523359703/\u0027\u003ehttps://www.facebook.com/groups/beshvil.yael/posts/3902667523359703/\u003c/a\u003e\u003cbr/\u003e\u003cbr/\u003e\u003cimg src=\u0027https://drive.google.com/uc?export=view\u0026amp;id=1gk6ivylE97ZhQSUox-b2DoyV7ghMhkRH\u0027 width=\u0027450\u0027/\u003e\u003cbr/\u003e\u003c/div\u003e",
                                            "tessellate":  -1,
                                            "extrude":  0,
                                            "visibility":  -1
                                        },
                         "geometry":  {
                                          "type":  "Point",
                                          "coordinates":  [
                                                              34.52345,
                                                              31.46462,
                                                              0.0
                                                          ]
                                      }
                     },
                     {
                         "type":  "Feature",
                         "properties":  {
                                            "Name":  "#1775",
                                            "description":  "\u003cdiv dir=\u0027rtl\u0027 style=\u0027font-family:Arial;\u0027\u003e\u003cb\u003eשם:\u003c/b\u003e דלית אפריים שכבד\u003cbr/\u003e\u003cb\u003eאתר:\u003c/b\u003e נחל חצצון\u003cbr/\u003e\u003cb\u003eתאריך:\u003c/b\u003e 09-03-2026\u003cbr/\u003e\u003cb\u003eID:\u003c/b\u003e 3934\u003cbr/\u003e\u003cb\u003eFB:\u003c/b\u003e \u003ca href=\u0027https://www.facebook.com/groups/beshvil.yael/posts/3911141465845642\u0027\u003ehttps://www.facebook.com/groups/beshvil.yael/posts/3911141465845642\u003c/a\u003e\u003cbr/\u003e\u003cbr/\u003e\u003cimg src=\u0027https://drive.google.com/uc?export=view\u0026amp;id=1456zZU8oKyEXoFKK7shtIX4TNpC8PmSm\u0027 width=\u0027450\u0027/\u003e\u003cbr/\u003e\u003c/div\u003e",
                                            "tessellate":  -1,
                                            "extrude":  0,
                                            "visibility":  -1
                                        },
                         "geometry":  {
                                          "type":  "Point",
                                          "coordinates":  [
                                                              35.31984,
                                                              31.55476,
                                                              0.0
                                                          ]
                                      }
                     },
                     {
                         "type":  "Feature",
                         "properties":  {
                                            "Name":  "#1775",
                                            "description":  "\u003cdiv dir=\u0027rtl\u0027 style=\u0027font-family:Arial;\u0027\u003e\u003cb\u003eשם:\u003c/b\u003e דלית אפריים שכבד\u003cbr/\u003e\u003cb\u003eאתר:\u003c/b\u003e מערת שמשון\u003cbr/\u003e\u003cb\u003eתאריך:\u003c/b\u003e 18-05-2026\u003cbr/\u003e\u003cb\u003eID:\u003c/b\u003e 4489\u003cbr/\u003e\u003cb\u003eFB:\u003c/b\u003e \u003ca href=\u0027https://www.facebook.com/groups/beshvil.yael/posts/3975229409436847/\u0027\u003ehttps://www.facebook.com/groups/beshvil.yael/posts/3975229409436847/\u003c/a\u003e\u003cbr/\u003e\u003cbr/\u003e\u003cimg src=\u0027https://drive.google.com/uc?export=view\u0026amp;id=1eEgMfuBZU71XXYoc3SE9MYwCfs9Esr2u\u0027 width=\u0027450\u0027/\u003e\u003cbr/\u003e\u003c/div\u003e",
                                            "tessellate":  -1,
                                            "extrude":  0,
                                            "visibility":  -1
                                        },
                         "geometry":  {
                                          "type":  "Point",
                                          "coordinates":  [
                                                              34.98129,
                                                              31.78551,
                                                              0.0
                                                          ]
                                      }
                     }
                 ]
}